;-------------------------------Cut file parameters------------------------
; Input file name : 6 hole side panel brack er (cut 2) solid.DXF
; File rotation : 0 File scale : 1
; Machine : Desktop
; Material name : Aluminum - 6061
; Material thickness : 0.018 in
; Cut path  : Outside
; Cut quality : fineRate
; Raw Material width : 7.8in
; Raw Material height : 3.7in
;-------------------------------Do Not modify the Gcode file---------------
G90
G21
M1403
M1405 X0.92 Y-1.50
M1406 X199.55 Y-95.18
M1407 S1.0
M1410 2.2.0; Generated on Wam
M1411 Aluminum - 6061
M1412 0.018 in
G0 X11.16 Y-41.26
M3
M8
G4 S1.
G1 X11.24 Y-41.23 F178.77
G1 X11.32 Y-41.23 F151.95
G1 X11.40 Y-41.23
G1 X11.47 Y-41.25 F125.14
G1 X11.55 Y-41.28
G1 X11.61 Y-41.33
G1 X11.67 Y-41.38
G1 X11.72 Y-41.45
G1 X11.75 Y-41.52
G1 X11.83 Y-41.72
G1 X11.87 Y-42.08
G1 X11.91 Y-42.44
G1 X11.89 Y-42.72
G1 X11.86 Y-43.01
G1 X11.82 Y-43.17
G1 X11.77 Y-43.33
G1 X11.62 Y-43.67
G1 X11.46 Y-44.01
G1 X11.36 Y-44.15
G1 X11.26 Y-44.29
G1 X11.14 Y-44.41
G1 X11.03 Y-44.54
G1 X10.73 Y-44.76
G1 X10.43 Y-44.99
G1 X10.28 Y-45.06
G1 X10.14 Y-45.13
G1 X9.79 Y-45.24
G1 X9.43 Y-45.34
G1 X9.07 Y-45.35
G1 X8.71 Y-45.36
G1 X8.54 Y-45.34
G1 X8.38 Y-45.32
G1 X8.03 Y-45.20
G1 X7.69 Y-45.08
G1 X7.39 Y-44.89
G1 X7.09 Y-44.69
G1 X6.84 Y-44.43
G1 X6.60 Y-44.17
G1 X6.42 Y-43.86
G1 X6.25 Y-43.55
G1 X6.15 Y-43.20
G1 X6.06 Y-42.86
G1 X6.05 Y-42.50
G1 X6.04 Y-42.14
G1 X6.12 Y-41.79
G1 X6.20 Y-41.45
G1 X6.36 Y-41.13
G1 X6.51 Y-40.81
G1 X6.75 Y-40.53
G1 X6.99 Y-40.25
G1 X7.27 Y-40.05
G1 X7.56 Y-39.84
G1 X7.88 Y-39.71
G1 X8.21 Y-39.58
G1 X8.58 Y-39.53
G1 X8.95 Y-39.48 F134.08
G1 X9.12 Y-39.49 F89.39
G1 X9.12 Y-39.49
G1 X9.12 Y-39.49
G4 S1.
M9
G4 S1.
M5
G4 S1.
G0 X31.52 Y-41.18
M3
M8
G4 S1.
G1 X31.60 Y-41.17
G1 X31.68 Y-41.17 F151.95
G1 X31.76 Y-41.19 F125.14
G1 X31.83 Y-41.22 F143.02
G1 X31.90 Y-41.26 F134.08
G1 X31.96 Y-41.31 F125.14
G1 X32.01 Y-41.37
G1 X32.05 Y-41.44
G1 X32.07 Y-41.52
G1 X32.13 Y-41.72
G1 X32.22 Y-42.09
G1 X32.23 Y-42.25
G1 X32.24 Y-42.42
G1 X32.21 Y-42.71
G1 X32.18 Y-43.01
G1 X32.07 Y-43.34
G1 X31.96 Y-43.67
G1 X31.77 Y-43.98
G1 X31.57 Y-44.30
G1 X31.46 Y-44.42
G1 X31.35 Y-44.54
G1 X31.05 Y-44.76
G1 X30.75 Y-44.99
G1 X30.60 Y-45.06
G1 X30.46 Y-45.13
G1 X30.11 Y-45.24
G1 X29.75 Y-45.34
G1 X29.40 Y-45.35
G1 X29.04 Y-45.36
G1 X28.68 Y-45.29
G1 X28.33 Y-45.21
G1 X28.17 Y-45.15
G1 X28.02 Y-45.09
G1 X27.71 Y-44.89
G1 X27.41 Y-44.69
G1 X27.16 Y-44.43
G1 X26.91 Y-44.16
G1 X26.81 Y-44.02
G1 X26.72 Y-43.87
G1 X26.59 Y-43.55
G1 X26.45 Y-43.22
G1 X26.40 Y-42.86
G1 X26.35 Y-42.50
G1 X26.38 Y-42.14
G1 X26.42 Y-41.78
G1 X26.46 Y-41.62
G1 X26.51 Y-41.46
G1 X26.67 Y-41.13
G1 X26.83 Y-40.81
G1 X27.07 Y-40.53
G1 X27.30 Y-40.26
G1 X27.60 Y-40.05
G1 X27.89 Y-39.84
G1 X28.21 Y-39.71
G1 X28.53 Y-39.58
G1 X28.90 Y-39.53
G1 X29.27 Y-39.48 F134.08
G1 X29.44 Y-39.49 F89.39
G1 X29.44 Y-39.49
G1 X29.44 Y-39.49
G4 S1.
M9
G4 S1.
M5
G4 S1.
G0 X31.56 Y-61.70
M3
M8
G4 S1.
G1 X31.64 Y-61.68
G1 X31.72 Y-61.68 F125.14
G1 X31.80 Y-61.69 F151.95
G1 X31.88 Y-61.71 F125.14
G1 X31.95 Y-61.75 F134.08
G1 X32.01 Y-61.80 F125.14
G1 X32.06 Y-61.86
G1 X32.11 Y-61.93
G1 X32.14 Y-62.00
G1 X32.15 Y-62.02
G1 X32.19 Y-62.39
G1 X32.23 Y-62.76
G1 X32.21 Y-63.04
G1 X32.18 Y-63.33
G1 X32.14 Y-63.49
G1 X32.09 Y-63.65
G1 X31.94 Y-63.99
G1 X31.78 Y-64.33
G1 X31.68 Y-64.46
G1 X31.59 Y-64.59
G1 X31.32 Y-64.85
G1 X31.06 Y-65.10
G1 X30.75 Y-65.28
G1 X30.44 Y-65.46
G1 X30.10 Y-65.56
G1 X29.75 Y-65.66
G1 X29.39 Y-65.67
G1 X29.03 Y-65.68
G1 X28.86 Y-65.66
G1 X28.69 Y-65.63
G1 X28.52 Y-65.59
G1 X28.35 Y-65.54
G1 X28.02 Y-65.38
G1 X27.68 Y-65.22
G1 X27.55 Y-65.12
G1 X27.42 Y-65.02
G1 X27.16 Y-64.75
G1 X26.91 Y-64.48
G1 X26.81 Y-64.34
G1 X26.72 Y-64.19
G1 X26.59 Y-63.87
G1 X26.45 Y-63.54
G1 X26.40 Y-63.18
G1 X26.34 Y-62.81
G1 X26.38 Y-62.47
G1 X26.41 Y-62.12
G1 X26.53 Y-61.78
G1 X26.66 Y-61.44
G1 X26.86 Y-61.13
G1 X27.06 Y-60.83
G1 X27.17 Y-60.71
G1 X27.29 Y-60.59
G1 X27.58 Y-60.38
G1 X27.88 Y-60.17
G1 X28.21 Y-60.03
G1 X28.55 Y-59.90
G1 X28.90 Y-59.85
G1 X29.25 Y-59.81 F134.08
G1 X29.61 Y-59.84 F89.39
G1 X29.61 Y-59.84
G1 X29.61 Y-59.84
G4 S1.
M9
G4 S1.
M5
G4 S1.
G0 X31.52 Y-81.83
M3
M8
G4 S1.
G1 X31.60 Y-81.81
G1 X31.68 Y-81.81 F125.14
G1 X31.76 Y-81.83 F151.95
G1 X31.83 Y-81.86 F143.02
G1 X31.90 Y-81.90 F125.14
G1 X31.96 Y-81.95
G1 X32.01 Y-82.01
G1 X32.05 Y-82.08
G1 X32.07 Y-82.16
G1 X32.13 Y-82.37
G1 X32.22 Y-82.73
G1 X32.23 Y-82.89
G1 X32.24 Y-83.06
G1 X32.21 Y-83.35
G1 X32.18 Y-83.63
G1 X32.07 Y-83.98
G1 X31.95 Y-84.33
G1 X31.76 Y-84.63
G1 X31.58 Y-84.93
G1 X31.46 Y-85.05
G1 X31.35 Y-85.18
G1 X31.05 Y-85.40
G1 X30.75 Y-85.63
G1 X30.60 Y-85.70
G1 X30.46 Y-85.77
G1 X30.10 Y-85.88
G1 X29.74 Y-85.98
G1 X29.58 Y-86.00
G1 X29.41 Y-86.01
G1 X29.04 Y-85.98
G1 X28.67 Y-85.95
G1 X28.35 Y-85.84
G1 X28.02 Y-85.73
G1 X27.71 Y-85.53
G1 X27.41 Y-85.33
G1 X27.16 Y-85.07
G1 X26.92 Y-84.81
G1 X26.74 Y-84.50
G1 X26.57 Y-84.19
G1 X26.47 Y-83.84
G1 X26.37 Y-83.48
G1 X26.37 Y-83.14
G1 X26.36 Y-82.80
G1 X26.44 Y-82.43
G1 X26.52 Y-82.07
G1 X26.59 Y-81.91
G1 X26.65 Y-81.75
G1 X26.74 Y-81.61
G1 X26.83 Y-81.46
G1 X27.06 Y-81.18
G1 X27.30 Y-80.90
G1 X27.60 Y-80.69
G1 X27.89 Y-80.48
G1 X28.05 Y-80.40
G1 X28.20 Y-80.33
G1 X28.37 Y-80.28
G1 X28.53 Y-80.22
G1 X28.90 Y-80.17
G1 X29.27 Y-80.12 F134.08
G1 X29.44 Y-80.13 F89.39
G1 X29.44 Y-80.13
G1 X29.44 Y-80.13
G4 S1.
M9
G4 S1.
M5
G4 S1.
G0 X11.24 Y-61.70
M3
M8
G4 S1.
G1 X11.32 Y-61.68
G1 X11.40 Y-61.68 F151.95
G1 X11.48 Y-61.69 F125.14
G1 X11.56 Y-61.71
G1 X11.63 Y-61.75 F134.08
G1 X11.69 Y-61.80 F125.14
G1 X11.74 Y-61.86
G1 X11.79 Y-61.93
G1 X11.82 Y-62.00
G1 X11.83 Y-62.02
G1 X11.87 Y-62.39
G1 X11.91 Y-62.76
G1 X11.89 Y-63.04
G1 X11.86 Y-63.33
G1 X11.82 Y-63.49
G1 X11.77 Y-63.65
G1 X11.62 Y-63.99
G1 X11.46 Y-64.33
G1 X11.36 Y-64.47
G1 X11.26 Y-64.61
G1 X11.01 Y-64.85
G1 X10.75 Y-65.09
G1 X10.44 Y-65.28
G1 X10.12 Y-65.46
G1 X9.78 Y-65.56
G1 X9.43 Y-65.66
G1 X9.07 Y-65.67
G1 X8.71 Y-65.68
G1 X8.54 Y-65.66
G1 X8.37 Y-65.63
G1 X8.20 Y-65.59
G1 X8.03 Y-65.54
G1 X7.70 Y-65.38
G1 X7.36 Y-65.22
G1 X7.23 Y-65.12
G1 X7.10 Y-65.02
G1 X6.84 Y-64.75
G1 X6.59 Y-64.48
G1 X6.50 Y-64.34
G1 X6.41 Y-64.20
G1 X6.27 Y-63.86
G1 X6.13 Y-63.52
G1 X6.09 Y-63.35
G1 X6.05 Y-63.18
G1 X6.04 Y-63.01
G1 X6.03 Y-62.84
G1 X6.06 Y-62.47
G1 X6.10 Y-62.10
G1 X6.21 Y-61.77
G1 X6.33 Y-61.45
G1 X6.53 Y-61.14
G1 X6.74 Y-60.83
G1 X6.85 Y-60.71
G1 X6.97 Y-60.59
G1 X7.27 Y-60.37
G1 X7.57 Y-60.16
G1 X7.89 Y-60.03
G1 X8.21 Y-59.90
G1 X8.57 Y-59.85
G1 X8.93 Y-59.81 F134.08
G1 X9.29 Y-59.84 F89.39
G1 X9.29 Y-59.84
G1 X9.29 Y-59.84
G4 S1.
M9
G4 S1.
M5
G4 S1.
G0 X11.19 Y-81.85
M3
M8
G4 S1.
G1 X11.27 Y-81.84
G1 X11.35 Y-81.83 F125.14
G1 X11.43 Y-81.84
G1 X11.50 Y-81.87 F143.02
G1 X11.57 Y-81.90 F134.08
G1 X11.64 Y-81.95 F125.14
G1 X11.69 Y-82.01
G1 X11.73 Y-82.08
G1 X11.77 Y-82.15
G1 X11.77 Y-82.18
G1 X11.83 Y-82.34
G1 X11.87 Y-82.71
G1 X11.91 Y-83.08
G1 X11.89 Y-83.35
G1 X11.86 Y-83.63
G1 X11.75 Y-83.98
G1 X11.63 Y-84.33
G1 X11.55 Y-84.48
G1 X11.47 Y-84.62
G1 X11.24 Y-84.90
G1 X11.01 Y-85.19
G1 X10.73 Y-85.40
G1 X10.44 Y-85.62
G1 X10.11 Y-85.76
G1 X9.78 Y-85.90
G1 X9.42 Y-85.96
G1 X9.06 Y-86.01
G1 X8.89 Y-86.01
G1 X8.72 Y-86.01
G1 X8.55 Y-85.98
G1 X8.38 Y-85.96
G1 X8.03 Y-85.84
G1 X7.69 Y-85.72
G1 X7.39 Y-85.53
G1 X7.09 Y-85.33
G1 X6.84 Y-85.07
G1 X6.60 Y-84.81
G1 X6.42 Y-84.50
G1 X6.25 Y-84.19
G1 X6.15 Y-83.84
G1 X6.06 Y-83.50
G1 X6.05 Y-83.13
G1 X6.04 Y-82.77
G1 X6.07 Y-82.61
G1 X6.09 Y-82.44
G1 X6.21 Y-82.10
G1 X6.34 Y-81.76
G1 X6.54 Y-81.45
G1 X6.74 Y-81.15
G1 X6.99 Y-80.91
G1 X7.24 Y-80.68
G1 X7.57 Y-80.50
G1 X7.90 Y-80.33
G1 X8.05 Y-80.27
G1 X8.21 Y-80.22
G1 X8.58 Y-80.17
G1 X8.95 Y-80.12 F134.08
G1 X9.12 Y-80.13 F89.39
G1 X9.12 Y-80.13
G1 X9.12 Y-80.13
G4 S1.
M9
G4 S1.
M5
G4 S1.
G0 X36.66 Y-38.88
M3
M8
G4 S1.
G1 X36.58 Y-38.89
G1 X36.50 Y-38.91 F125.14
G1 X36.43 Y-38.94 F151.95
G1 X36.37 Y-38.99 F143.02
G1 X36.31 Y-39.04 F125.14
G1 X36.26 Y-39.11
G1 X36.23 Y-39.18
G1 X36.21 Y-39.26
G1 X36.20 Y-39.34
G1 X36.20 Y-43.68 F143.02
G1 X36.20 Y-48.02 F160.89
G1 X36.20 Y-52.37 F178.77
G1 X36.20 Y-56.71
G1 X36.20 Y-61.06
G1 X36.20 Y-62.75
G1 X36.20 Y-67.75
G1 X36.20 Y-72.75
G1 X36.20 Y-77.75
G1 X36.20 Y-82.75 F151.95
G1 X36.20 Y-87.75 F125.14
G1 X36.20 Y-89.70
G1 X36.06 Y-89.84
G1 X35.92 Y-89.98
G1 X30.92 Y-89.98 F151.95
G1 X25.92 Y-89.98 F178.77
G1 X20.92 Y-89.98
G1 X19.13 Y-89.98
G1 X14.13 Y-89.98
G1 X9.13 Y-89.98 F151.95
G1 X4.13 Y-89.98 F125.14
G1 X2.34 Y-89.98
G1 X2.20 Y-89.84
G1 X2.06 Y-89.70
G1 X2.06 Y-84.70 F151.95
G1 X2.06 Y-79.70 F178.77
G1 X2.06 Y-74.70
G1 X2.06 Y-69.70
G1 X2.06 Y-64.70
G1 X2.06 Y-62.75
G1 X2.06 Y-57.75
G1 X2.06 Y-52.75
G1 X2.06 Y-47.75
G1 X2.06 Y-42.75 F151.95
G1 X2.06 Y-37.75 F125.14
G1 X2.06 Y-35.80
G1 X2.20 Y-35.66
G1 X2.34 Y-35.52
G1 X7.34 Y-35.52 F151.95
G1 X12.34 Y-35.52 F178.77
G1 X17.34 Y-35.52
G1 X19.13 Y-35.52
G1 X24.13 Y-35.52
G1 X29.13 Y-35.52 F151.95
G1 X34.13 Y-35.52 F125.14
G1 X35.92 Y-35.52
G1 X36.06 Y-35.66 F134.08
G1 X36.20 Y-35.80 F89.39
G1 X36.20 Y-35.80
G1 X36.20 Y-35.80
G4 S1.
M9
G4 S1.
M5
G4 S1.
G0 X90.10 Y-8.18
M3
M8
G4 S1.
G1 X90.18 Y-8.18
G1 X90.25 Y-8.19 F151.95
G1 X90.33 Y-8.22
G1 X90.40 Y-8.25 F125.14
G1 X90.46 Y-8.30
G1 X90.52 Y-8.36
G1 X90.56 Y-8.43
G1 X90.59 Y-8.50
G1 X90.61 Y-8.58
G1 X90.61 Y-8.62
G1 X90.65 Y-8.98
G1 X90.63 Y-9.26
G1 X90.60 Y-9.55
G1 X90.56 Y-9.71
G1 X90.51 Y-9.87
G1 X90.36 Y-10.20
G1 X90.20 Y-10.53
G1 X89.97 Y-10.82
G1 X89.74 Y-11.10
G1 X89.62 Y-11.21
G1 X89.49 Y-11.31
G1 X89.18 Y-11.50
G1 X88.86 Y-11.68
G1 X88.52 Y-11.78
G1 X88.17 Y-11.88
G1 X87.82 Y-11.89
G1 X87.46 Y-11.90
G1 X87.10 Y-11.83
G1 X86.75 Y-11.75
G1 X86.59 Y-11.69
G1 X86.44 Y-11.63
G1 X86.13 Y-11.43
G1 X85.83 Y-11.23
G1 X85.58 Y-10.97
G1 X85.34 Y-10.71
G1 X85.16 Y-10.40
G1 X84.99 Y-10.09
G1 X84.89 Y-9.74
G1 X84.79 Y-9.38
G1 X84.79 Y-9.03
G1 X84.78 Y-8.68
G1 X84.80 Y-8.51
G1 X84.83 Y-8.34
G1 X84.96 Y-7.99
G1 X85.08 Y-7.64
G1 X85.16 Y-7.50
G1 X85.25 Y-7.36
G1 X85.48 Y-7.08
G1 X85.72 Y-6.80
G1 X86.02 Y-6.59
G1 X86.31 Y-6.38
G1 X86.46 Y-6.31
G1 X86.61 Y-6.24
G1 X86.96 Y-6.14
G1 X87.32 Y-6.05
G1 X87.67 Y-6.05
G1 X88.03 Y-6.04 F134.08
G1 X88.39 Y-6.13 F89.39
G1 X88.39 Y-6.13
G1 X88.39 Y-6.13
G4 S1.
M9
G4 S1.
M5
G4 S1.
G0 X88.66 Y-29.89
M3
M8
G4 S1.
G1 X88.71 Y-29.96
G1 X88.74 Y-30.03 F125.14
G1 X88.76 Y-30.11 F151.95
G1 X88.76 Y-30.19 F143.02
G1 X88.76 Y-30.27 F125.14
G1 X88.73 Y-30.34
G1 X88.70 Y-30.41
G1 X88.65 Y-30.48
G1 X88.59 Y-30.53
G1 X88.47 Y-30.63
G1 X88.24 Y-30.72
G1 X88.01 Y-30.80
G1 X87.77 Y-30.81
G1 X87.53 Y-30.82
G1 X87.28 Y-30.75
G1 X87.04 Y-30.68
G1 X86.94 Y-30.63
G1 X86.84 Y-30.57
G1 X86.67 Y-30.41
G1 X86.50 Y-30.25
G1 X86.37 Y-30.02
G1 X86.25 Y-29.79
G1 X86.21 Y-29.57
G1 X86.17 Y-29.35
G1 X86.20 Y-29.10
G1 X86.23 Y-28.85
G1 X86.34 Y-28.63
G1 X86.44 Y-28.41
G1 X86.62 Y-28.23
G1 X86.80 Y-28.05
G1 X86.88 Y-27.99
G1 X86.97 Y-27.93
G1 X87.21 Y-27.85
G1 X87.45 Y-27.77
G1 X87.70 Y-27.77
G1 X87.95 Y-27.76 F134.08
G1 X88.05 Y-27.79 F89.39
G1 X88.05 Y-27.79
G1 X88.05 Y-27.79
G4 S1.
M9
G4 S1.
M5
G4 S1.
G0 X108.98 Y-29.97
M3
M8
G4 S1.
G1 X109.02 Y-30.05
G1 X109.04 Y-30.12 F125.14
G1 X109.04 Y-30.20
G1 X109.03 Y-30.28 F143.02
G1 X109.01 Y-30.36 F125.14
G1 X108.98 Y-30.43
G1 X108.93 Y-30.50
G1 X108.87 Y-30.55
G1 X108.81 Y-30.60
G1 X108.78 Y-30.62
G1 X108.57 Y-30.74
G1 X108.32 Y-30.78
G1 X108.07 Y-30.83
G1 X107.97 Y-30.83
G1 X107.86 Y-30.83
G1 X107.61 Y-30.75
G1 X107.36 Y-30.68
G1 X107.17 Y-30.56
G1 X106.99 Y-30.43
G1 X106.83 Y-30.23
G1 X106.68 Y-30.03
G1 X106.59 Y-29.79
G1 X106.51 Y-29.55
G1 X106.50 Y-29.45
G1 X106.49 Y-29.35
G1 X106.52 Y-29.09
G1 X106.56 Y-28.83
G1 X106.60 Y-28.72
G1 X106.64 Y-28.62
G1 X106.69 Y-28.52
G1 X106.75 Y-28.42
G1 X106.93 Y-28.24
G1 X107.10 Y-28.06
G1 X107.33 Y-27.94
G1 X107.55 Y-27.82
G1 X107.65 Y-27.80
G1 X107.75 Y-27.77
G1 X108.00 Y-27.77
G1 X108.25 Y-27.77 F134.08
G1 X108.49 Y-27.84 F89.39
G1 X108.49 Y-27.84
G1 X108.49 Y-27.84
G4 S1.
M9
G4 S1.
M5
G4 S1.
G0 X110.28 Y-7.96
M3
M8
G4 S1.
G1 X110.36 Y-7.94
G1 X110.44 Y-7.93 F151.95
G1 X110.52 Y-7.93 F125.14
G1 X110.60 Y-7.95
G1 X110.67 Y-7.98 F134.08
G1 X110.74 Y-8.03 F125.14
G1 X110.79 Y-8.08
G1 X110.84 Y-8.15
G1 X110.88 Y-8.22
G1 X110.89 Y-8.25
G1 X110.93 Y-8.61
G1 X110.97 Y-8.98
G1 X110.95 Y-9.26
G1 X110.92 Y-9.55
G1 X110.88 Y-9.71
G1 X110.83 Y-9.87
G1 X110.68 Y-10.21
G1 X110.52 Y-10.55
G1 X110.42 Y-10.69
G1 X110.32 Y-10.83
G1 X110.20 Y-10.95
G1 X110.09 Y-11.08
G1 X109.79 Y-11.30
G1 X109.50 Y-11.52
G1 X109.17 Y-11.66
G1 X108.84 Y-11.80
G1 X108.49 Y-11.86
G1 X108.14 Y-11.91
G1 X107.77 Y-11.88
G1 X107.41 Y-11.85
G1 X107.09 Y-11.74
G1 X106.76 Y-11.63
G1 X106.45 Y-11.43
G1 X106.15 Y-11.23
G1 X105.90 Y-10.97
G1 X105.66 Y-10.71
G1 X105.48 Y-10.40
G1 X105.31 Y-10.09
G1 X105.21 Y-9.74
G1 X105.11 Y-9.38
G1 X105.10 Y-9.22
G1 X105.09 Y-9.06
G1 X105.12 Y-8.69
G1 X105.16 Y-8.33
G1 X105.28 Y-7.99
G1 X105.40 Y-7.64
G1 X105.48 Y-7.50
G1 X105.57 Y-7.36
G1 X105.81 Y-7.07
G1 X106.05 Y-6.79
G1 X106.18 Y-6.68
G1 X106.32 Y-6.57
G1 X106.46 Y-6.48
G1 X106.61 Y-6.39
G1 X106.95 Y-6.26
G1 X107.29 Y-6.12
G1 X107.64 Y-6.07
G1 X107.99 Y-6.03 F134.08
G1 X108.35 Y-6.07 F89.39
G1 X108.35 Y-6.07
G1 X108.35 Y-6.07
G4 S1.
M9
G4 S1.
M5
G4 S1.
G0 X115.40 Y-5.42
M3
M8
G4 S1.
G1 X115.32 Y-5.43
G1 X115.24 Y-5.45 F125.14
G1 X115.17 Y-5.48 F151.95
G1 X115.11 Y-5.53 F143.02
G1 X115.05 Y-5.58 F125.14
G1 X115.00 Y-5.65
G1 X114.97 Y-5.72
G1 X114.95 Y-5.80
G1 X114.94 Y-5.88
G1 X114.94 Y-9.78 F143.02
G1 X114.94 Y-13.68 F160.89
G1 X114.94 Y-17.58 F178.77
G1 X114.94 Y-18.43 F169.83
G1 X114.94 Y-23.43 F178.77
G1 X114.94 Y-28.43 F151.95
G1 X114.94 Y-33.43 F125.14
G1 X114.94 Y-34.52
G1 X114.80 Y-34.66
G1 X114.66 Y-34.80
G1 X109.66 Y-34.80 F151.95
G1 X104.66 Y-34.80 F178.77
G1 X99.66 Y-34.80
G1 X97.87 Y-34.80
G1 X92.87 Y-34.80
G1 X87.87 Y-34.80 F151.95
G1 X82.87 Y-34.80 F125.14
G1 X81.08 Y-34.80
G1 X80.94 Y-34.66
G1 X80.80 Y-34.52
G1 X80.80 Y-29.52 F151.95
G1 X80.80 Y-24.52 F178.77
G1 X80.80 Y-19.52
G1 X80.80 Y-18.43 F169.83
G1 X80.80 Y-13.43 F178.77
G1 X80.80 Y-8.43 F151.95
G1 X80.80 Y-3.43 F125.14
G1 X80.80 Y-2.34
G1 X80.94 Y-2.20
G1 X81.08 Y-2.06
G1 X86.08 Y-2.06 F151.95
G1 X91.08 Y-2.06 F178.77
G1 X96.08 Y-2.06
G1 X97.87 Y-2.06
G1 X102.87 Y-2.06
G1 X107.87 Y-2.06 F151.95
G1 X112.87 Y-2.06 F125.14
G1 X114.66 Y-2.06
G1 X114.80 Y-2.20 F134.08
G1 X114.94 Y-2.34 F89.39
G1 X114.94 Y-2.34
G1 X114.94 Y-2.34
G4 S1.
M9
G4 S1.
M5
G4 S1.
G0 X68.02 Y-45.89
M3
M8
G4 S1.
G1 X68.10 Y-45.89
G1 X68.18 Y-45.90 F151.95
G1 X68.26 Y-45.92
G1 X68.33 Y-45.96 F125.14
G1 X68.39 Y-46.01
G1 X68.44 Y-46.07
G1 X68.49 Y-46.13
G1 X68.52 Y-46.21
G1 X68.53 Y-46.29
G1 X68.56 Y-46.50
G1 X68.60 Y-46.84
G1 X68.57 Y-47.15
G1 X68.53 Y-47.46
G1 X68.41 Y-47.79
G1 X68.29 Y-48.12
G1 X68.21 Y-48.25
G1 X68.13 Y-48.38
G1 X67.89 Y-48.65
G1 X67.65 Y-48.91
G1 X67.52 Y-49.00
G1 X67.40 Y-49.10
G1 X67.08 Y-49.26
G1 X66.76 Y-49.41
G1 X66.61 Y-49.45
G1 X66.46 Y-49.50
G1 X66.10 Y-49.52
G1 X65.75 Y-49.55
G1 X65.58 Y-49.53
G1 X65.42 Y-49.52
G1 X65.10 Y-49.42
G1 X64.78 Y-49.32
G1 X64.48 Y-49.13
G1 X64.18 Y-48.95
G1 X63.94 Y-48.70
G1 X63.71 Y-48.46
G1 X63.62 Y-48.33
G1 X63.53 Y-48.19
G1 X63.40 Y-47.86
G1 X63.26 Y-47.53
G1 X63.23 Y-47.38
G1 X63.20 Y-47.22
G1 X63.20 Y-46.88
G1 X63.19 Y-46.53
G1 X63.28 Y-46.20
G1 X63.36 Y-45.86
G1 X63.52 Y-45.56
G1 X63.69 Y-45.25
G1 X63.79 Y-45.13
G1 X63.89 Y-45.01
G1 X64.15 Y-44.78
G1 X64.42 Y-44.56
G1 X64.73 Y-44.41
G1 X65.04 Y-44.26
G1 X65.38 Y-44.20
G1 X65.72 Y-44.13 F134.08
G1 X66.05 Y-44.15 F89.39
G1 X66.05 Y-44.15
G1 X66.05 Y-44.15
G4 S1.
M9
G4 S1.
M5
G4 S1.
G0 X49.06 Y-46.20
M3
M8
G4 S1.
G1 X49.14 Y-46.20
G1 X49.21 Y-46.22 F125.14
G1 X49.29 Y-46.25
G1 X49.36 Y-46.29 F143.02
G1 X49.42 Y-46.34 F134.08
G1 X49.47 Y-46.40 F125.14
G1 X49.51 Y-46.47
G1 X49.53 Y-46.55
G1 X49.54 Y-46.63
G1 X49.55 Y-46.67
G1 X49.56 Y-46.83
G1 X49.52 Y-47.14
G1 X49.48 Y-47.46
G1 X49.36 Y-47.78
G1 X49.24 Y-48.10
G1 X49.04 Y-48.39
G1 X48.84 Y-48.67
G1 X48.73 Y-48.78
G1 X48.62 Y-48.89
G1 X48.33 Y-49.08
G1 X48.04 Y-49.28
G1 X47.71 Y-49.39
G1 X47.38 Y-49.50
G1 X47.22 Y-49.52
G1 X47.07 Y-49.55
G1 X46.72 Y-49.53
G1 X46.37 Y-49.51
G1 X46.04 Y-49.41
G1 X45.70 Y-49.31
G1 X45.57 Y-49.23
G1 X45.43 Y-49.16
G1 X45.16 Y-48.94
G1 X44.89 Y-48.72
G1 X44.68 Y-48.44
G1 X44.47 Y-48.16
G1 X44.40 Y-48.02
G1 X44.33 Y-47.88
G1 X44.24 Y-47.54
G1 X44.15 Y-47.19
G1 X44.14 Y-47.04
G1 X44.12 Y-46.88
G1 X44.17 Y-46.53
G1 X44.21 Y-46.18
G1 X44.25 Y-46.03
G1 X44.30 Y-45.88
G1 X44.47 Y-45.57
G1 X44.63 Y-45.26
G1 X44.86 Y-45.01
G1 X45.09 Y-44.76
G1 X45.39 Y-44.57
G1 X45.68 Y-44.38
G1 X45.99 Y-44.28
G1 X46.30 Y-44.18
G1 X46.65 Y-44.15
G1 X47.00 Y-44.13 F134.08
G1 X47.34 Y-44.19 F89.39
G1 X47.34 Y-44.19
G1 X47.34 Y-44.19
G4 S1.
M9
G4 S1.
M5
G4 S1.
G0 X73.03 Y-43.52
M3
M8
G4 S1.
G1 X72.95 Y-43.53
G1 X72.87 Y-43.55 F160.89
G1 X72.80 Y-43.58 F151.95
G1 X72.74 Y-43.63 F125.14
G1 X72.68 Y-43.68
G1 X72.63 Y-43.75
G1 X72.60 Y-43.82
G1 X72.58 Y-43.90
G1 X72.57 Y-43.98
G1 X72.57 Y-46.21 F143.02
G1 X72.57 Y-46.84 F134.08
G1 X72.57 Y-51.84 F125.14
G1 X72.57 Y-53.24
G1 X72.43 Y-53.38
G1 X72.29 Y-53.52
G1 X67.29 Y-53.52 F151.95
G1 X62.29 Y-53.52 F178.77
G1 X57.29 Y-53.52
G1 X56.36 Y-53.52
G1 X51.37 Y-53.52
G1 X46.37 Y-53.52 F151.95
G1 X41.36 Y-53.52 F125.14
G1 X40.44 Y-53.52
G1 X40.30 Y-53.38
G1 X40.16 Y-53.24
G1 X40.16 Y-48.24 F151.95
G1 X40.16 Y-46.84
G1 X40.16 Y-41.84 F125.14
G1 X40.16 Y-40.44
G1 X40.30 Y-40.30
G1 X40.44 Y-40.16
G1 X45.44 Y-40.16 F151.95
G1 X50.44 Y-40.16 F178.77
G1 X55.44 Y-40.16
G1 X56.36 Y-40.16
G1 X61.37 Y-40.16
G1 X66.37 Y-40.16 F151.95
G1 X71.37 Y-40.16 F125.14
G1 X72.29 Y-40.16
G1 X72.43 Y-40.30 F134.08
G1 X72.57 Y-40.44 F89.39
G1 X72.57 Y-40.44
G1 X72.57 Y-40.44
G4 S1.
M9
G4 S1.
M5
G4 S1.
G0 X171.26 Y-8.50
M3
M8
G4 S1.
G1 X171.34 Y-8.48
G1 X171.42 Y-8.48 F125.14
G1 X171.50 Y-8.49 F151.95
G1 X171.58 Y-8.51 F143.02
G1 X171.65 Y-8.55 F125.14
G1 X171.71 Y-8.60
G1 X171.76 Y-8.66
G1 X171.81 Y-8.73
G1 X171.84 Y-8.80
G1 X171.85 Y-8.82
G1 X171.89 Y-9.19
G1 X171.93 Y-9.56
G1 X171.91 Y-9.83
G1 X171.88 Y-10.11
G1 X171.77 Y-10.46
G1 X171.65 Y-10.81
G1 X171.57 Y-10.96
G1 X171.49 Y-11.10
G1 X171.26 Y-11.38
G1 X171.03 Y-11.67
G1 X170.74 Y-11.89
G1 X170.45 Y-12.11
G1 X170.30 Y-12.18
G1 X170.16 Y-12.25
G1 X169.80 Y-12.36
G1 X169.44 Y-12.46
G1 X169.27 Y-12.48
G1 X169.10 Y-12.49
G1 X168.93 Y-12.49
G1 X168.75 Y-12.49
G1 X168.39 Y-12.41
G1 X168.03 Y-12.33
G1 X167.87 Y-12.27
G1 X167.71 Y-12.20
G1 X167.41 Y-12.01
G1 X167.12 Y-11.82
G1 X166.87 Y-11.56
G1 X166.62 Y-11.29
G1 X166.44 Y-10.98
G1 X166.27 Y-10.67
G1 X166.17 Y-10.32
G1 X166.07 Y-9.96
G1 X166.06 Y-9.79
G1 X166.04 Y-9.62
G1 X166.05 Y-9.45
G1 X166.06 Y-9.28
G1 X166.14 Y-8.91
G1 X166.22 Y-8.55
G1 X166.37 Y-8.24
G1 X166.53 Y-7.94
G1 X166.77 Y-7.65
G1 X167.01 Y-7.37
G1 X167.29 Y-7.17
G1 X167.58 Y-6.96
G1 X167.90 Y-6.83
G1 X168.23 Y-6.70
G1 X168.59 Y-6.65
G1 X168.95 Y-6.61 F134.08
G1 X169.31 Y-6.64 F89.39
G1 X169.31 Y-6.64
G1 X169.31 Y-6.64
G4 S1.
M9
G4 S1.
M5
G4 S1.
G0 X191.56 Y-8.53
M3
M8
G4 S1.
G1 X191.63 Y-8.51
G1 X191.71 Y-8.50 F125.14
G1 X191.79 Y-8.50 F151.95
G1 X191.87 Y-8.52 F143.02
G1 X191.94 Y-8.56 F125.14
G1 X192.01 Y-8.60
G1 X192.07 Y-8.66
G1 X192.11 Y-8.72
G1 X192.15 Y-8.79
G1 X192.17 Y-8.84
G1 X192.21 Y-9.20
G1 X192.25 Y-9.56
G1 X192.23 Y-9.84
G1 X192.20 Y-10.13
G1 X192.16 Y-10.29
G1 X192.11 Y-10.45
G1 X191.96 Y-10.78
G1 X191.80 Y-11.11
G1 X191.58 Y-11.39
G1 X191.35 Y-11.67
G1 X191.07 Y-11.88
G1 X190.78 Y-12.10
G1 X190.45 Y-12.24
G1 X190.11 Y-12.38
G1 X189.95 Y-12.42
G1 X189.79 Y-12.46
G1 X189.42 Y-12.47
G1 X189.05 Y-12.48
G1 X188.88 Y-12.46
G1 X188.72 Y-12.44
G1 X188.37 Y-12.32
G1 X188.03 Y-12.20
G1 X187.72 Y-12.00
G1 X187.41 Y-11.80
G1 X187.30 Y-11.69
G1 X187.18 Y-11.58
G1 X186.96 Y-11.28
G1 X186.74 Y-10.99
G1 X186.60 Y-10.65
G1 X186.47 Y-10.32
G1 X186.43 Y-10.15
G1 X186.39 Y-9.98
G1 X186.38 Y-9.80
G1 X186.36 Y-9.62
G1 X186.40 Y-9.27
G1 X186.43 Y-8.92
G1 X186.56 Y-8.57
G1 X186.68 Y-8.22
G1 X186.76 Y-8.08
G1 X186.85 Y-7.94
G1 X187.08 Y-7.66
G1 X187.32 Y-7.38
G1 X187.62 Y-7.17
G1 X187.91 Y-6.96
G1 X188.06 Y-6.89
G1 X188.21 Y-6.82
G1 X188.57 Y-6.72
G1 X188.93 Y-6.63
G1 X189.10 Y-6.62
G1 X189.26 Y-6.60 F134.08
G1 X189.62 Y-6.64 F89.39
G1 X189.62 Y-6.64
G1 X189.62 Y-6.64
G4 S1.
M9
G4 S1.
M5
G4 S1.
G0 X191.58 Y-21.21
M3
M8
G4 S1.
G1 X191.66 Y-21.19
G1 X191.74 Y-21.18 F125.14
G1 X191.82 Y-21.20 F151.95
G1 X191.90 Y-21.22 F125.14
G1 X191.97 Y-21.26 F134.08
G1 X192.03 Y-21.30 F125.14
G1 X192.09 Y-21.36
G1 X192.13 Y-21.43
G1 X192.16 Y-21.51
G1 X192.17 Y-21.54
G1 X192.21 Y-21.89
G1 X192.26 Y-22.24
G1 X192.23 Y-22.53
G1 X192.20 Y-22.83
G1 X192.09 Y-23.16
G1 X191.98 Y-23.49
G1 X191.79 Y-23.79
G1 X191.60 Y-24.10
G1 X191.34 Y-24.35
G1 X191.08 Y-24.60
G1 X190.77 Y-24.78
G1 X190.46 Y-24.96
G1 X190.11 Y-25.06
G1 X189.76 Y-25.16
G1 X189.60 Y-25.18
G1 X189.43 Y-25.19
G1 X189.07 Y-25.16
G1 X188.71 Y-25.13
G1 X188.36 Y-25.01
G1 X188.01 Y-24.89
G1 X187.87 Y-24.81
G1 X187.73 Y-24.73
G1 X187.45 Y-24.50
G1 X187.17 Y-24.27
G1 X186.95 Y-23.98
G1 X186.74 Y-23.69
G1 X186.61 Y-23.36
G1 X186.47 Y-23.03
G1 X186.42 Y-22.68
G1 X186.37 Y-22.32
G1 X186.40 Y-21.96
G1 X186.44 Y-21.59
G1 X186.49 Y-21.43
G1 X186.53 Y-21.26
G1 X186.69 Y-20.95
G1 X186.85 Y-20.64
G1 X187.09 Y-20.35
G1 X187.33 Y-20.07
G1 X187.46 Y-19.97
G1 X187.58 Y-19.86
G1 X187.91 Y-19.68
G1 X188.24 Y-19.51
G1 X188.39 Y-19.45
G1 X188.55 Y-19.40
G1 X188.91 Y-19.35
G1 X189.27 Y-19.31 F134.08
G1 X189.64 Y-19.35 F89.39
G1 X189.64 Y-19.35
G1 X189.64 Y-19.35
G4 S1.
M9
G4 S1.
M5
G4 S1.
G0 X171.22 Y-21.00
M3
M8
G4 S1.
G1 X171.30 Y-20.99
G1 X171.38 Y-20.99 F125.14
G1 X171.46 Y-21.01 F151.95
G1 X171.53 Y-21.04 F125.14
G1 X171.60 Y-21.08
G1 X171.66 Y-21.13
G1 X171.71 Y-21.19
G1 X171.75 Y-21.26
G1 X171.77 Y-21.34
G1 X171.83 Y-21.54
G1 X171.92 Y-21.91
G1 X171.93 Y-22.07
G1 X171.94 Y-22.24
G1 X171.91 Y-22.53
G1 X171.88 Y-22.83
G1 X171.77 Y-23.16
G1 X171.66 Y-23.49
G1 X171.47 Y-23.79
G1 X171.28 Y-24.10
G1 X171.02 Y-24.35
G1 X170.76 Y-24.60
G1 X170.45 Y-24.78
G1 X170.13 Y-24.97
G1 X169.97 Y-25.02
G1 X169.82 Y-25.08
G1 X169.45 Y-25.13
G1 X169.08 Y-25.19
G1 X168.92 Y-25.19
G1 X168.75 Y-25.19
G1 X168.40 Y-25.11
G1 X168.04 Y-25.04
G1 X167.72 Y-24.88
G1 X167.40 Y-24.72
G1 X167.12 Y-24.49
G1 X166.84 Y-24.26
G1 X166.73 Y-24.13
G1 X166.62 Y-24.00
G1 X166.45 Y-23.69
G1 X166.27 Y-23.37
G1 X166.17 Y-23.02
G1 X166.08 Y-22.68
G1 X166.07 Y-22.32
G1 X166.06 Y-21.96
G1 X166.14 Y-21.61
G1 X166.22 Y-21.27
G1 X166.38 Y-20.95
G1 X166.53 Y-20.63
G1 X166.77 Y-20.35
G1 X167.00 Y-20.08
G1 X167.29 Y-19.87
G1 X167.58 Y-19.66
G1 X167.91 Y-19.53
G1 X168.25 Y-19.40
G1 X168.61 Y-19.35
G1 X168.97 Y-19.30 F134.08
G1 X169.14 Y-19.31 F89.39
G1 X169.14 Y-19.31
G1 X169.14 Y-19.31
G4 S1.
M9
G4 S1.
M5
G4 S1.
G0 X196.68 Y-6.00
M3
M8
G4 S1.
G1 X196.60 Y-6.01
G1 X196.52 Y-6.03 F151.95
G1 X196.45 Y-6.06
G1 X196.39 Y-6.11 F125.14
G1 X196.33 Y-6.16
G1 X196.28 Y-6.23
G1 X196.25 Y-6.30
G1 X196.23 Y-6.38
G1 X196.22 Y-6.46
G1 X196.22 Y-10.09 F143.02
G1 X196.22 Y-13.73 F160.89
G1 X196.22 Y-15.90 F178.77
G1 X196.22 Y-20.90
G1 X196.22 Y-25.90 F151.95
G1 X196.22 Y-28.88 F125.14
G1 X196.08 Y-29.02
G1 X195.94 Y-29.16
G1 X190.94 Y-29.16 F151.95
G1 X185.94 Y-29.16 F178.77
G1 X180.94 Y-29.16
G1 X179.15 Y-29.16
G1 X174.15 Y-29.16
G1 X169.15 Y-29.16 F151.95
G1 X164.15 Y-29.16 F125.14
G1 X162.36 Y-29.16
G1 X162.22 Y-29.02
G1 X162.08 Y-28.88
G1 X162.08 Y-23.88 F151.95
G1 X162.08 Y-18.88 F178.77
G1 X162.08 Y-15.90
G1 X162.08 Y-10.90
G1 X162.08 Y-5.90 F151.95
G1 X162.08 Y-2.92 F125.14
G1 X162.22 Y-2.78
G1 X162.36 Y-2.64
G1 X167.36 Y-2.64 F151.95
G1 X172.36 Y-2.64 F178.77
G1 X177.36 Y-2.64
G1 X179.15 Y-2.64
G1 X184.15 Y-2.64
G1 X189.15 Y-2.64 F151.95
G1 X194.15 Y-2.64 F125.14
G1 X195.94 Y-2.64
G1 X196.08 Y-2.78 F134.08
G1 X196.22 Y-2.92 F89.39
G1 X196.22 Y-2.92
G1 X196.22 Y-2.92
G4 S1.
M9
G4 S1.
M5
G4 S1.
G0 X10.66 Y-7.92
M3
M8
G4 S1.
G1 X10.74 Y-7.90
G1 X10.82 Y-7.90 F125.14
G1 X10.90 Y-7.91 F151.95
G1 X10.98 Y-7.94 F143.02
G1 X11.05 Y-7.97 F125.14
G1 X11.11 Y-8.02
G1 X11.17 Y-8.08
G1 X11.21 Y-8.15
G1 X11.24 Y-8.22
G1 X11.25 Y-8.25
G1 X11.29 Y-8.61
G1 X11.34 Y-8.98
G1 X11.31 Y-9.25
G1 X11.28 Y-9.53
G1 X11.17 Y-9.88
G1 X11.05 Y-10.23
G1 X10.97 Y-10.38
G1 X10.90 Y-10.52
G1 X10.67 Y-10.81
G1 X10.44 Y-11.09
G1 X10.14 Y-11.31
G1 X9.85 Y-11.53
G1 X9.71 Y-11.60
G1 X9.56 Y-11.67
G1 X9.20 Y-11.78
G1 X8.84 Y-11.88
G1 X8.67 Y-11.90
G1 X8.50 Y-11.91
G1 X8.33 Y-11.91
G1 X8.16 Y-11.91
G1 X7.79 Y-11.83
G1 X7.43 Y-11.75
G1 X7.27 Y-11.69
G1 X7.11 Y-11.62
G1 X6.81 Y-11.43
G1 X6.52 Y-11.24
G1 X6.27 Y-10.98
G1 X6.02 Y-10.71
G1 X5.84 Y-10.40
G1 X5.67 Y-10.09
G1 X5.57 Y-9.74
G1 X5.48 Y-9.38
G1 X5.46 Y-9.21
G1 X5.45 Y-9.04
G1 X5.45 Y-8.87
G1 X5.46 Y-8.70
G1 X5.54 Y-8.34
G1 X5.62 Y-7.97
G1 X5.77 Y-7.66
G1 X5.93 Y-7.36
G1 X6.17 Y-7.07
G1 X6.41 Y-6.79
G1 X6.70 Y-6.59
G1 X6.98 Y-6.38
G1 X7.31 Y-6.25
G1 X7.63 Y-6.12
G1 X7.99 Y-6.08
G1 X8.36 Y-6.03 F134.08
G1 X8.71 Y-6.07 F89.39
G1 X8.71 Y-6.07
G1 X8.71 Y-6.07
G4 S1.
M9
G4 S1.
M5
G4 S1.
G0 X30.96 Y-7.95
M3
M8
G4 S1.
G1 X31.04 Y-7.93
G1 X31.12 Y-7.92 F125.14
G1 X31.20 Y-7.93 F151.95
G1 X31.27 Y-7.94 F143.02
G1 X31.35 Y-7.98 F125.14
G1 X31.41 Y-8.02
G1 X31.47 Y-8.08
G1 X31.52 Y-8.14
G1 X31.55 Y-8.21
G1 X31.57 Y-8.26
G1 X31.61 Y-8.62
G1 X31.66 Y-8.98
G1 X31.63 Y-9.26
G1 X31.60 Y-9.55
G1 X31.56 Y-9.71
G1 X31.52 Y-9.87
G1 X31.36 Y-10.20
G1 X31.21 Y-10.53
G1 X30.98 Y-10.81
G1 X30.76 Y-11.09
G1 X30.47 Y-11.30
G1 X30.18 Y-11.52
G1 X29.85 Y-11.66
G1 X29.51 Y-11.80
G1 X29.35 Y-11.84
G1 X29.19 Y-11.88
G1 X28.82 Y-11.89
G1 X28.45 Y-11.90
G1 X28.28 Y-11.88
G1 X28.12 Y-11.86
G1 X27.78 Y-11.74
G1 X27.43 Y-11.62
G1 X27.12 Y-11.42
G1 X26.82 Y-11.23
G1 X26.70 Y-11.11
G1 X26.58 Y-11.00
G1 X26.36 Y-10.71
G1 X26.15 Y-10.41
G1 X26.01 Y-10.07
G1 X25.87 Y-9.74
G1 X25.83 Y-9.57
G1 X25.80 Y-9.40
G1 X25.78 Y-9.22
G1 X25.77 Y-9.04
G1 X25.80 Y-8.69
G1 X25.83 Y-8.34
G1 X25.96 Y-7.99
G1 X26.08 Y-7.64
G1 X26.16 Y-7.50
G1 X26.25 Y-7.36
G1 X26.48 Y-7.08
G1 X26.72 Y-6.80
G1 X27.02 Y-6.59
G1 X27.31 Y-6.38
G1 X27.46 Y-6.31
G1 X27.61 Y-6.24
G1 X27.97 Y-6.14
G1 X28.33 Y-6.05
G1 X28.50 Y-6.04
G1 X28.66 Y-6.02 F134.08
G1 X29.02 Y-6.06 F89.39
G1 X29.02 Y-6.06
G1 X29.02 Y-6.06
G4 S1.
M9
G4 S1.
M5
G4 S1.
G0 X30.99 Y-20.63
M3
M8
G4 S1.
G1 X31.06 Y-20.61
G1 X31.14 Y-20.61 F125.14
G1 X31.22 Y-20.62 F151.95
G1 X31.30 Y-20.64 F125.14
G1 X31.37 Y-20.68 F134.08
G1 X31.43 Y-20.73 F125.14
G1 X31.49 Y-20.78
G1 X31.53 Y-20.85
G1 X31.56 Y-20.93
G1 X31.57 Y-20.96
G1 X31.61 Y-21.31
G1 X31.66 Y-21.66
G1 X31.63 Y-21.95
G1 X31.60 Y-22.25
G1 X31.49 Y-22.58
G1 X31.39 Y-22.91
G1 X31.19 Y-23.22
G1 X31.00 Y-23.52
G1 X30.74 Y-23.77
G1 X30.48 Y-24.02
G1 X30.17 Y-24.20
G1 X29.86 Y-24.38
G1 X29.51 Y-24.48
G1 X29.16 Y-24.58
G1 X29.00 Y-24.60
G1 X28.84 Y-24.61
G1 X28.47 Y-24.58
G1 X28.11 Y-24.55
G1 X27.76 Y-24.43
G1 X27.42 Y-24.32
G1 X27.27 Y-24.24
G1 X27.13 Y-24.15
G1 X26.85 Y-23.92
G1 X26.57 Y-23.69
G1 X26.36 Y-23.40
G1 X26.15 Y-23.11
G1 X26.01 Y-22.78
G1 X25.87 Y-22.45
G1 X25.82 Y-22.10
G1 X25.77 Y-21.74
G1 X25.80 Y-21.38
G1 X25.84 Y-21.02
G1 X25.89 Y-20.85
G1 X25.94 Y-20.69
G1 X26.09 Y-20.37
G1 X26.25 Y-20.06
G1 X26.49 Y-19.77
G1 X26.73 Y-19.49
G1 X26.86 Y-19.39
G1 X26.99 Y-19.28
G1 X27.31 Y-19.10
G1 X27.64 Y-18.93
G1 X27.80 Y-18.88
G1 X27.95 Y-18.82
G1 X28.31 Y-18.78
G1 X28.68 Y-18.73 F134.08
G1 X29.04 Y-18.77 F89.39
G1 X29.04 Y-18.77
G1 X29.04 Y-18.77
G4 S1.
M9
G4 S1.
M5
G4 S1.
G0 X10.62 Y-20.42
M3
M8
G4 S1.
G1 X10.70 Y-20.41
G1 X10.78 Y-20.41 F125.14
G1 X10.86 Y-20.43 F151.95
G1 X10.93 Y-20.46 F125.14
G1 X11.00 Y-20.50
G1 X11.06 Y-20.55
G1 X11.11 Y-20.61
G1 X11.15 Y-20.68
G1 X11.18 Y-20.76
G1 X11.23 Y-20.97
G1 X11.32 Y-21.33
G1 X11.33 Y-21.49
G1 X11.34 Y-21.66
G1 X11.31 Y-21.95
G1 X11.28 Y-22.25
G1 X11.17 Y-22.58
G1 X11.07 Y-22.91
G1 X10.87 Y-23.22
G1 X10.68 Y-23.52
G1 X10.42 Y-23.77
G1 X10.16 Y-24.02
G1 X9.85 Y-24.20
G1 X9.53 Y-24.39
G1 X9.38 Y-24.44
G1 X9.22 Y-24.50
G1 X8.85 Y-24.56
G1 X8.49 Y-24.61
G1 X8.32 Y-24.61
G1 X8.16 Y-24.61
G1 X7.80 Y-24.53
G1 X7.44 Y-24.46
G1 X7.12 Y-24.30
G1 X6.80 Y-24.15
G1 X6.52 Y-23.91
G1 X6.24 Y-23.68
G1 X6.13 Y-23.55
G1 X6.03 Y-23.43
G1 X5.85 Y-23.11
G1 X5.67 Y-22.79
G1 X5.57 Y-22.44
G1 X5.48 Y-22.10
G1 X5.47 Y-21.74
G1 X5.46 Y-21.38
G1 X5.54 Y-21.04
G1 X5.62 Y-20.69
G1 X5.78 Y-20.37
G1 X5.94 Y-20.05
G1 X6.17 Y-19.77
G1 X6.40 Y-19.50
G1 X6.69 Y-19.29
G1 X6.98 Y-19.09
G1 X7.31 Y-18.95
G1 X7.65 Y-18.82
G1 X8.01 Y-18.77
G1 X8.37 Y-18.72 F134.08
G1 X8.54 Y-18.73 F89.39
G1 X8.54 Y-18.73
G1 X8.54 Y-18.73
G4 S1.
M9
G4 S1.
M5
G4 S1.
G0 X36.08 Y-5.42
M3
M8
G4 S1.
G1 X36.00 Y-5.43
G1 X35.93 Y-5.45 F151.95
G1 X35.85 Y-5.48
G1 X35.79 Y-5.53 F125.14
G1 X35.73 Y-5.58
G1 X35.69 Y-5.65
G1 X35.65 Y-5.72
G1 X35.63 Y-5.80
G1 X35.62 Y-5.88
G1 X35.62 Y-9.51 F143.02
G1 X35.62 Y-13.15 F160.89
G1 X35.62 Y-15.32 F178.77
G1 X35.62 Y-20.32
G1 X35.62 Y-25.32 F151.95
G1 X35.62 Y-28.30 F125.14
G1 X35.48 Y-28.44
G1 X35.34 Y-28.58
G1 X30.34 Y-28.58 F151.95
G1 X25.34 Y-28.58 F178.77
G1 X20.34 Y-28.58
G1 X18.55 Y-28.58
G1 X13.55 Y-28.58
G1 X8.55 Y-28.58 F151.95
G1 X3.55 Y-28.58 F125.14
G1 X1.76 Y-28.58
G1 X1.62 Y-28.44
G1 X1.48 Y-28.30
G1 X1.48 Y-23.30 F151.95
G1 X1.48 Y-18.30 F178.77
G1 X1.48 Y-15.32
G1 X1.48 Y-10.32
G1 X1.48 Y-5.32 F151.95
G1 X1.48 Y-2.34 F125.14
G1 X1.62 Y-2.20
G1 X1.76 Y-2.06
G1 X6.76 Y-2.06 F151.95
G1 X11.76 Y-2.06 F178.77
G1 X16.76 Y-2.06
G1 X18.55 Y-2.06
G1 X23.55 Y-2.06
G1 X28.55 Y-2.06 F151.95
G1 X33.55 Y-2.06 F125.14
G1 X35.34 Y-2.06
G1 X35.48 Y-2.20 F134.08
G1 X35.62 Y-2.34 F89.39
G1 X35.62 Y-2.34
G1 X35.62 Y-2.34
G4 S1.
M9
G4 S1.
M5
G4 S1.
G0 X130.62 Y-7.92
M3
M8
G4 S1.
G1 X130.70 Y-7.90
G1 X130.78 Y-7.90 F125.14
G1 X130.86 Y-7.91 F151.95
G1 X130.94 Y-7.94 F143.02
G1 X131.01 Y-7.97 F125.14
G1 X131.07 Y-8.02
G1 X131.12 Y-8.08
G1 X131.17 Y-8.15
G1 X131.20 Y-8.22
G1 X131.21 Y-8.25
G1 X131.25 Y-8.61
G1 X131.29 Y-8.98
G1 X131.27 Y-9.25
G1 X131.24 Y-9.53
G1 X131.13 Y-9.88
G1 X131.01 Y-10.23
G1 X130.93 Y-10.38
G1 X130.85 Y-10.52
G1 X130.62 Y-10.81
G1 X130.39 Y-11.09
G1 X130.10 Y-11.31
G1 X129.81 Y-11.53
G1 X129.66 Y-11.60
G1 X129.52 Y-11.67
G1 X129.16 Y-11.78
G1 X128.80 Y-11.88
G1 X128.63 Y-11.90
G1 X128.46 Y-11.91
G1 X128.29 Y-11.91
G1 X128.11 Y-11.91
G1 X127.75 Y-11.83
G1 X127.39 Y-11.75
G1 X127.23 Y-11.69
G1 X127.07 Y-11.62
G1 X126.77 Y-11.43
G1 X126.48 Y-11.24
G1 X126.23 Y-10.98
G1 X125.98 Y-10.71
G1 X125.80 Y-10.40
G1 X125.63 Y-10.09
G1 X125.53 Y-9.74
G1 X125.43 Y-9.38
G1 X125.42 Y-9.21
G1 X125.40 Y-9.04
G1 X125.41 Y-8.87
G1 X125.42 Y-8.70
G1 X125.50 Y-8.34
G1 X125.58 Y-7.97
G1 X125.73 Y-7.66
G1 X125.89 Y-7.36
G1 X126.13 Y-7.07
G1 X126.37 Y-6.79
G1 X126.65 Y-6.59
G1 X126.94 Y-6.38
G1 X127.26 Y-6.25
G1 X127.59 Y-6.12
G1 X127.95 Y-6.08
G1 X128.31 Y-6.03 F134.08
G1 X128.67 Y-6.07 F89.39
G1 X128.67 Y-6.07
G1 X128.67 Y-6.07
G4 S1.
M9
G4 S1.
M5
G4 S1.
G0 X150.92 Y-7.95
M3
M8
G4 S1.
G1 X150.99 Y-7.93
G1 X151.07 Y-7.92 F125.14
G1 X151.15 Y-7.93 F151.95
G1 X151.23 Y-7.94 F143.02
G1 X151.30 Y-7.98 F125.14
G1 X151.37 Y-8.02
G1 X151.43 Y-8.08
G1 X151.47 Y-8.14
G1 X151.51 Y-8.21
G1 X151.53 Y-8.26
G1 X151.57 Y-8.62
G1 X151.61 Y-8.98
G1 X151.59 Y-9.26
G1 X151.56 Y-9.55
G1 X151.52 Y-9.71
G1 X151.47 Y-9.87
G1 X151.32 Y-10.20
G1 X151.16 Y-10.53
G1 X150.94 Y-10.81
G1 X150.71 Y-11.09
G1 X150.43 Y-11.30
G1 X150.14 Y-11.52
G1 X149.81 Y-11.66
G1 X149.47 Y-11.80
G1 X149.31 Y-11.84
G1 X149.15 Y-11.88
G1 X148.78 Y-11.89
G1 X148.41 Y-11.90
G1 X148.24 Y-11.88
G1 X148.08 Y-11.86
G1 X147.73 Y-11.74
G1 X147.39 Y-11.62
G1 X147.08 Y-11.42
G1 X146.77 Y-11.23
G1 X146.66 Y-11.11
G1 X146.54 Y-11.00
G1 X146.32 Y-10.71
G1 X146.10 Y-10.41
G1 X145.96 Y-10.07
G1 X145.83 Y-9.74
G1 X145.79 Y-9.57
G1 X145.75 Y-9.40
G1 X145.74 Y-9.22
G1 X145.72 Y-9.04
G1 X145.76 Y-8.69
G1 X145.79 Y-8.34
G1 X145.92 Y-7.99
G1 X146.04 Y-7.64
G1 X146.12 Y-7.50
G1 X146.21 Y-7.36
G1 X146.44 Y-7.08
G1 X146.68 Y-6.80
G1 X146.98 Y-6.59
G1 X147.27 Y-6.38
G1 X147.42 Y-6.31
G1 X147.57 Y-6.24
G1 X147.93 Y-6.14
G1 X148.29 Y-6.05
G1 X148.46 Y-6.04
G1 X148.62 Y-6.02 F134.08
G1 X148.98 Y-6.06 F89.39
G1 X148.98 Y-6.06
G1 X148.98 Y-6.06
G4 S1.
M9
G4 S1.
M5
G4 S1.
G0 X150.94 Y-20.63
M3
M8
G4 S1.
G1 X151.02 Y-20.61
G1 X151.10 Y-20.61 F125.14
G1 X151.18 Y-20.62 F151.95
G1 X151.26 Y-20.64 F125.14
G1 X151.33 Y-20.68 F134.08
G1 X151.39 Y-20.73 F125.14
G1 X151.45 Y-20.78
G1 X151.49 Y-20.85
G1 X151.52 Y-20.93
G1 X151.53 Y-20.96
G1 X151.57 Y-21.31
G1 X151.62 Y-21.66
G1 X151.59 Y-21.95
G1 X151.56 Y-22.25
G1 X151.45 Y-22.58
G1 X151.34 Y-22.91
G1 X151.15 Y-23.22
G1 X150.96 Y-23.52
G1 X150.70 Y-23.77
G1 X150.44 Y-24.02
G1 X150.13 Y-24.20
G1 X149.82 Y-24.38
G1 X149.47 Y-24.48
G1 X149.12 Y-24.58
G1 X148.96 Y-24.60
G1 X148.79 Y-24.61
G1 X148.43 Y-24.58
G1 X148.07 Y-24.55
G1 X147.72 Y-24.43
G1 X147.37 Y-24.32
G1 X147.23 Y-24.24
G1 X147.09 Y-24.15
G1 X146.81 Y-23.92
G1 X146.53 Y-23.69
G1 X146.31 Y-23.40
G1 X146.10 Y-23.11
G1 X145.97 Y-22.78
G1 X145.83 Y-22.45
G1 X145.78 Y-22.10
G1 X145.73 Y-21.74
G1 X145.76 Y-21.38
G1 X145.80 Y-21.02
G1 X145.85 Y-20.85
G1 X145.89 Y-20.69
G1 X146.05 Y-20.37
G1 X146.21 Y-20.06
G1 X146.45 Y-19.77
G1 X146.69 Y-19.49
G1 X146.82 Y-19.39
G1 X146.94 Y-19.28
G1 X147.27 Y-19.10
G1 X147.60 Y-18.93
G1 X147.75 Y-18.88
G1 X147.91 Y-18.82
G1 X148.27 Y-18.78
G1 X148.63 Y-18.73 F134.08
G1 X149.00 Y-18.77 F89.39
G1 X149.00 Y-18.77
G1 X149.00 Y-18.77
G4 S1.
M9
G4 S1.
M5
G4 S1.
G0 X130.58 Y-20.42
M3
M8
G4 S1.
G1 X130.66 Y-20.41
G1 X130.74 Y-20.41 F125.14
G1 X130.82 Y-20.43 F151.95
G1 X130.89 Y-20.46 F125.14
G1 X130.96 Y-20.50
G1 X131.02 Y-20.55
G1 X131.07 Y-20.61
G1 X131.11 Y-20.68
G1 X131.13 Y-20.76
G1 X131.19 Y-20.97
G1 X131.28 Y-21.33
G1 X131.29 Y-21.49
G1 X131.30 Y-21.66
G1 X131.27 Y-21.95
G1 X131.24 Y-22.25
G1 X131.13 Y-22.58
G1 X131.02 Y-22.91
G1 X130.83 Y-23.22
G1 X130.64 Y-23.52
G1 X130.38 Y-23.77
G1 X130.12 Y-24.02
G1 X129.81 Y-24.20
G1 X129.49 Y-24.39
G1 X129.33 Y-24.44
G1 X129.18 Y-24.50
G1 X128.81 Y-24.56
G1 X128.44 Y-24.61
G1 X128.28 Y-24.61
G1 X128.11 Y-24.61
G1 X127.76 Y-24.53
G1 X127.40 Y-24.46
G1 X127.08 Y-24.30
G1 X126.76 Y-24.15
G1 X126.48 Y-23.91
G1 X126.20 Y-23.68
G1 X126.09 Y-23.55
G1 X125.98 Y-23.43
G1 X125.81 Y-23.11
G1 X125.63 Y-22.79
G1 X125.53 Y-22.44
G1 X125.44 Y-22.10
G1 X125.43 Y-21.74
G1 X125.42 Y-21.38
G1 X125.50 Y-21.04
G1 X125.58 Y-20.69
G1 X125.74 Y-20.37
G1 X125.89 Y-20.05
G1 X126.13 Y-19.77
G1 X126.36 Y-19.50
G1 X126.65 Y-19.29
G1 X126.94 Y-19.09
G1 X127.27 Y-18.95
G1 X127.61 Y-18.82
G1 X127.97 Y-18.77
G1 X128.33 Y-18.72 F134.08
G1 X128.50 Y-18.73 F89.39
G1 X128.50 Y-18.73
G1 X128.50 Y-18.73
G4 S1.
M9
G4 S1.
M5
G4 S1.
G0 X156.04 Y-5.42
M3
M8
G4 S1.
G1 X155.96 Y-5.43
G1 X155.88 Y-5.45 F151.95
G1 X155.81 Y-5.48
G1 X155.75 Y-5.53 F125.14
G1 X155.69 Y-5.58
G1 X155.64 Y-5.65
G1 X155.61 Y-5.72
G1 X155.59 Y-5.80
G1 X155.58 Y-5.88
G1 X155.58 Y-9.51 F143.02
G1 X155.58 Y-13.15 F160.89
G1 X155.58 Y-15.32 F178.77
G1 X155.58 Y-20.32
G1 X155.58 Y-25.32 F151.95
G1 X155.58 Y-28.30 F125.14
G1 X155.44 Y-28.44
G1 X155.30 Y-28.58
G1 X150.30 Y-28.58 F151.95
G1 X145.30 Y-28.58 F178.77
G1 X140.30 Y-28.58
G1 X138.51 Y-28.58
G1 X133.51 Y-28.58
G1 X128.51 Y-28.58 F151.95
G1 X123.51 Y-28.58 F125.14
G1 X121.72 Y-28.58
G1 X121.58 Y-28.44
G1 X121.44 Y-28.30
G1 X121.44 Y-23.30 F151.95
G1 X121.44 Y-18.30 F178.77
G1 X121.44 Y-15.32
G1 X121.44 Y-10.32
G1 X121.44 Y-5.32 F151.95
G1 X121.44 Y-2.34 F125.14
G1 X121.58 Y-2.20
G1 X121.72 Y-2.06
G1 X126.72 Y-2.06 F151.95
G1 X131.72 Y-2.06 F178.77
G1 X136.72 Y-2.06
G1 X138.51 Y-2.06
G1 X143.51 Y-2.06
G1 X148.51 Y-2.06 F151.95
G1 X153.51 Y-2.06 F125.14
G1 X155.30 Y-2.06
G1 X155.44 Y-2.20 F134.08
G1 X155.58 Y-2.34 F89.39
G1 X155.58 Y-2.34
G1 X155.58 Y-2.34
G4 S1.
M9
G4 S1.
M5
G4 S1.
G0 X49.20 Y-7.65
M3
M8
G4 S1.
G1 X49.27 Y-7.63
G1 X49.35 Y-7.61 F151.95
G1 X49.43 Y-7.61 F125.14
G1 X49.51 Y-7.63 F143.02
G1 X49.58 Y-7.66 F134.08
G1 X49.65 Y-7.70 F125.14
G1 X49.71 Y-7.75
G1 X49.76 Y-7.81
G1 X49.80 Y-7.88
G1 X49.81 Y-7.90
G1 X49.90 Y-8.26
G1 X49.99 Y-8.63
G1 X50.00 Y-8.79
G1 X50.01 Y-8.96
G1 X49.99 Y-9.24
G1 X49.96 Y-9.53
G1 X49.85 Y-9.87
G1 X49.74 Y-10.21
G1 X49.54 Y-10.52
G1 X49.35 Y-10.83
G1 X49.10 Y-11.07
G1 X48.85 Y-11.31
G1 X48.54 Y-11.49
G1 X48.22 Y-11.68
G1 X47.87 Y-11.78
G1 X47.52 Y-11.88
G1 X47.36 Y-11.89
G1 X47.19 Y-11.91
G1 X46.83 Y-11.88
G1 X46.47 Y-11.85
G1 X46.12 Y-11.73
G1 X45.78 Y-11.61
G1 X45.63 Y-11.53
G1 X45.49 Y-11.45
G1 X45.21 Y-11.22
G1 X44.93 Y-10.99
G1 X44.71 Y-10.69
G1 X44.49 Y-10.40
G1 X44.42 Y-10.25
G1 X44.35 Y-10.10
G1 X44.25 Y-9.75
G1 X44.16 Y-9.40
G1 X44.15 Y-9.04
G1 X44.14 Y-8.68
G1 X44.22 Y-8.34
G1 X44.30 Y-7.99
G1 X44.46 Y-7.66
G1 X44.62 Y-7.33
G1 X44.72 Y-7.20
G1 X44.82 Y-7.07
G1 X45.09 Y-6.82
G1 X45.36 Y-6.58
G1 X45.67 Y-6.41
G1 X45.98 Y-6.23
G1 X46.34 Y-6.14
G1 X46.69 Y-6.05 F134.08
G1 X47.03 Y-6.04 F89.39
G1 X47.03 Y-6.04
G1 X47.03 Y-6.04
G4 S1.
M9
G4 S1.
M5
G4 S1.
G0 X69.66 Y-7.88
M3
M8
G4 S1.
G1 X69.74 Y-7.87
G1 X69.82 Y-7.87 F160.89
G1 X69.89 Y-7.89 F151.95
G1 X69.97 Y-7.92 F143.02
G1 X70.04 Y-7.96 F125.14
G1 X70.10 Y-8.01
G1 X70.15 Y-8.07
G1 X70.19 Y-8.14
G1 X70.21 Y-8.22
G1 X70.22 Y-8.26
G1 X70.31 Y-8.63
G1 X70.32 Y-8.79
G1 X70.33 Y-8.96
G1 X70.31 Y-9.24
G1 X70.28 Y-9.53
G1 X70.16 Y-9.88
G1 X70.05 Y-10.23
G1 X69.97 Y-10.37
G1 X69.89 Y-10.52
G1 X69.66 Y-10.80
G1 X69.43 Y-11.09
G1 X69.14 Y-11.31
G1 X68.85 Y-11.52
G1 X68.70 Y-11.60
G1 X68.56 Y-11.67
G1 X68.21 Y-11.77
G1 X67.86 Y-11.87
G1 X67.49 Y-11.89
G1 X67.13 Y-11.90
G1 X66.96 Y-11.88
G1 X66.80 Y-11.85
G1 X66.45 Y-11.73
G1 X66.10 Y-11.61
G1 X65.95 Y-11.53
G1 X65.81 Y-11.45
G1 X65.53 Y-11.22
G1 X65.25 Y-10.99
G1 X65.03 Y-10.69
G1 X64.81 Y-10.40
G1 X64.74 Y-10.25
G1 X64.67 Y-10.10
G1 X64.57 Y-9.75
G1 X64.48 Y-9.40
G1 X64.47 Y-9.03
G1 X64.46 Y-8.67
G1 X64.49 Y-8.50
G1 X64.51 Y-8.33
G1 X64.56 Y-8.17
G1 X64.61 Y-8.00
G1 X64.77 Y-7.67
G1 X64.94 Y-7.33
G1 X65.04 Y-7.20
G1 X65.14 Y-7.07
G1 X65.41 Y-6.82
G1 X65.68 Y-6.58
G1 X65.99 Y-6.41
G1 X66.30 Y-6.23
G1 X66.66 Y-6.14
G1 X67.01 Y-6.05
G1 X67.17 Y-6.04
G1 X67.34 Y-6.02 F134.08
G1 X67.70 Y-6.06 F89.39
G1 X67.70 Y-6.06
G1 X67.70 Y-6.06
G4 S1.
M9
G4 S1.
M5
G4 S1.
G0 X69.66 Y-28.22
M3
M8
G4 S1.
G1 X69.74 Y-28.21
G1 X69.82 Y-28.21 F151.95
G1 X69.90 Y-28.22
G1 X69.97 Y-28.25 F143.02
G1 X70.04 Y-28.29 F134.08
G1 X70.10 Y-28.35 F125.14
G1 X70.15 Y-28.41
G1 X70.19 Y-28.48
G1 X70.22 Y-28.55
G1 X70.22 Y-28.58
G1 X70.31 Y-28.95
G1 X70.32 Y-29.11
G1 X70.33 Y-29.28
G1 X70.31 Y-29.56
G1 X70.28 Y-29.85
G1 X70.17 Y-30.19
G1 X70.06 Y-30.53
G1 X69.86 Y-30.84
G1 X69.67 Y-31.15
G1 X69.42 Y-31.39
G1 X69.17 Y-31.63
G1 X68.86 Y-31.81
G1 X68.54 Y-32.00
G1 X68.20 Y-32.10
G1 X67.86 Y-32.19
G1 X67.50 Y-32.21
G1 X67.14 Y-32.22
G1 X66.79 Y-32.15
G1 X66.44 Y-32.08
G1 X66.12 Y-31.92
G1 X65.80 Y-31.76
G1 X65.52 Y-31.53
G1 X65.24 Y-31.30
G1 X65.13 Y-31.17
G1 X65.03 Y-31.05
G1 X64.84 Y-30.72
G1 X64.66 Y-30.40
G1 X64.61 Y-30.24
G1 X64.55 Y-30.08
G1 X64.50 Y-29.72
G1 X64.45 Y-29.36
G1 X64.48 Y-29.00
G1 X64.52 Y-28.64
G1 X64.56 Y-28.48
G1 X64.61 Y-28.32
G1 X64.77 Y-27.99
G1 X64.93 Y-27.67
G1 X65.17 Y-27.39
G1 X65.40 Y-27.12
G1 X65.69 Y-26.91
G1 X65.98 Y-26.71
G1 X66.31 Y-26.57
G1 X66.64 Y-26.44
G1 X67.00 Y-26.39
G1 X67.35 Y-26.35 F134.08
G1 X67.72 Y-26.39 F89.39
G1 X67.72 Y-26.39
G1 X67.72 Y-26.39
G4 S1.
M9
G4 S1.
M5
G4 S1.
G0 X49.34 Y-27.59
M3
M8
G4 S1.
G1 X49.42 Y-27.58
G1 X49.50 Y-27.58 F151.95
G1 X49.57 Y-27.60 F125.14
G1 X49.65 Y-27.63
G1 X49.72 Y-27.67 F134.08
G1 X49.78 Y-27.72 F125.14
G1 X49.83 Y-27.78
G1 X49.87 Y-27.85
G1 X49.89 Y-27.93
G1 X49.90 Y-27.97
G1 X49.99 Y-28.34
G1 X50.00 Y-28.50
G1 X50.01 Y-28.67
G1 X49.99 Y-28.95
G1 X49.96 Y-29.24
G1 X49.85 Y-29.58
G1 X49.74 Y-29.92
G1 X49.54 Y-30.23
G1 X49.35 Y-30.54
G1 X49.24 Y-30.67
G1 X49.13 Y-30.79
G1 X48.83 Y-31.01
G1 X48.53 Y-31.23
G1 X48.38 Y-31.31
G1 X48.24 Y-31.38
G1 X47.88 Y-31.49
G1 X47.52 Y-31.59
G1 X47.36 Y-31.60
G1 X47.19 Y-31.62
G1 X46.83 Y-31.59
G1 X46.47 Y-31.56
G1 X46.12 Y-31.44
G1 X45.78 Y-31.32
G1 X45.63 Y-31.24
G1 X45.49 Y-31.16
G1 X45.21 Y-30.93
G1 X44.93 Y-30.70
G1 X44.71 Y-30.40
G1 X44.49 Y-30.11
G1 X44.42 Y-29.96
G1 X44.35 Y-29.81
G1 X44.25 Y-29.46
G1 X44.16 Y-29.11
G1 X44.15 Y-28.75
G1 X44.14 Y-28.39
G1 X44.22 Y-28.04
G1 X44.30 Y-27.68
G1 X44.36 Y-27.53
G1 X44.43 Y-27.38
G1 X44.63 Y-27.07
G1 X44.83 Y-26.77
G1 X45.09 Y-26.53
G1 X45.36 Y-26.29
G1 X45.67 Y-26.12
G1 X45.98 Y-25.94
G1 X46.34 Y-25.85
G1 X46.69 Y-25.76
G1 X46.85 Y-25.75
G1 X47.02 Y-25.73 F134.08
G1 X47.38 Y-25.77 F89.39
G1 X47.38 Y-25.77
G1 X47.38 Y-25.77
G4 S1.
M9
G4 S1.
M5
G4 S1.
G0 X74.76 Y-5.42
M3
M8
G4 S1.
G1 X74.68 Y-5.43
G1 X74.60 Y-5.45 F125.14
G1 X74.53 Y-5.48 F151.95
G1 X74.46 Y-5.53 F143.02
G1 X74.41 Y-5.58 F125.14
G1 X74.36 Y-5.65
G1 X74.33 Y-5.72
G1 X74.31 Y-5.80
G1 X74.30 Y-5.88
G1 X74.30 Y-9.80 F143.02
G1 X74.30 Y-13.73 F160.89
G1 X74.30 Y-17.66 F178.77
G1 X74.30 Y-18.82 F169.83
G1 X74.30 Y-23.82 F178.77
G1 X74.30 Y-28.82 F151.95
G1 X74.30 Y-33.82 F125.14
G1 X74.30 Y-35.31
G1 X74.16 Y-35.45
G1 X74.02 Y-35.59
G1 X69.02 Y-35.59 F151.95
G1 X64.02 Y-35.59 F178.77
G1 X59.02 Y-35.59
G1 X57.23 Y-35.59
G1 X52.23 Y-35.59
G1 X47.23 Y-35.59 F151.95
G1 X42.23 Y-35.59 F125.14
G1 X40.44 Y-35.59
G1 X40.30 Y-35.45
G1 X40.16 Y-35.31
G1 X40.16 Y-30.31 F151.95
G1 X40.16 Y-25.31 F178.77
G1 X40.16 Y-20.31
G1 X40.16 Y-18.82
G1 X40.16 Y-13.82
G1 X40.16 Y-8.82 F151.95
G1 X40.16 Y-3.82 F125.14
G1 X40.16 Y-2.34
G1 X40.30 Y-2.20
G1 X40.44 Y-2.06
G1 X45.44 Y-2.06 F151.95
G1 X50.44 Y-2.06 F178.77
G1 X55.44 Y-2.06
G1 X57.23 Y-2.06
G1 X62.23 Y-2.06
G1 X67.23 Y-2.06 F151.95
G1 X72.23 Y-2.06 F125.14
G1 X74.02 Y-2.06
G1 X74.16 Y-2.20 F134.08
G1 X74.30 Y-2.34 F89.39
G1 X74.30 Y-2.34
G1 X74.30 Y-2.34
G4 S1.
M9
G4 S1.
M5
G4 S1.
G0 X117.94 Y-43.52
M3
M8
G4 S1.
G1 X117.86 Y-43.53
G1 X117.78 Y-43.55 F125.14
G1 X117.71 Y-43.58 F151.95
G1 X117.65 Y-43.63 F143.02
G1 X117.59 Y-43.68 F125.14
G1 X117.54 Y-43.75
G1 X117.51 Y-43.82
G1 X117.49 Y-43.90
G1 X117.48 Y-43.98
G1 X117.48 Y-48.32 F143.02
G1 X117.48 Y-52.67 F160.89
G1 X117.48 Y-57.01 F178.77
G1 X117.48 Y-61.35
G1 X117.48 Y-65.70
G1 X117.48 Y-67.39
G1 X117.48 Y-72.39
G1 X117.48 Y-77.39
G1 X117.48 Y-82.39
G1 X117.48 Y-87.39 F151.95
G1 X117.48 Y-92.39 F125.14
G1 X117.48 Y-94.34
G1 X117.34 Y-94.48
G1 X117.20 Y-94.62
G1 X112.20 Y-94.62 F151.95
G1 X107.20 Y-94.62 F178.77
G1 X102.20 Y-94.62
G1 X100.41 Y-94.62
G1 X95.41 Y-94.62
G1 X90.41 Y-94.62 F151.95
G1 X85.41 Y-94.62 F125.14
G1 X83.62 Y-94.62
G1 X83.48 Y-94.48
G1 X83.34 Y-94.34
G1 X83.34 Y-89.34 F151.95
G1 X83.34 Y-84.34 F178.77
G1 X83.34 Y-79.34
G1 X83.34 Y-74.34
G1 X83.34 Y-69.34
G1 X83.34 Y-67.39
G1 X83.34 Y-62.39
G1 X83.34 Y-57.39
G1 X83.34 Y-52.39
G1 X83.34 Y-47.39 F151.95
G1 X83.34 Y-42.39 F125.14
G1 X83.34 Y-40.44
G1 X83.48 Y-40.30
G1 X83.62 Y-40.16
G1 X88.62 Y-40.16 F151.95
G1 X93.62 Y-40.16 F178.77
G1 X98.62 Y-40.16
G1 X100.41 Y-40.16
G1 X105.41 Y-40.16
G1 X110.41 Y-40.16 F151.95
G1 X115.41 Y-40.16 F125.14
G1 X117.20 Y-40.16
G1 X117.34 Y-40.30 F134.08
G1 X117.48 Y-40.44 F89.39
G1 X117.48 Y-40.44
G1 X117.48 Y-40.44
G4 S1.
M9
G4 S1.
M5
G4 S1.
G0 X158.58 Y-43.52
M3
M8
G4 S1.
G1 X158.50 Y-43.53
G1 X158.42 Y-43.55 F125.14
G1 X158.35 Y-43.58 F151.95
G1 X158.29 Y-43.63 F143.02
G1 X158.23 Y-43.68 F125.14
G1 X158.18 Y-43.75
G1 X158.15 Y-43.82
G1 X158.13 Y-43.90
G1 X158.12 Y-43.98
G1 X158.12 Y-48.32 F143.02
G1 X158.12 Y-52.67 F160.89
G1 X158.12 Y-57.01 F178.77
G1 X158.12 Y-61.35
G1 X158.12 Y-65.70
G1 X158.12 Y-67.39
G1 X158.12 Y-72.39
G1 X158.12 Y-77.39
G1 X158.12 Y-82.39
G1 X158.12 Y-87.39 F151.95
G1 X158.12 Y-92.39 F125.14
G1 X158.12 Y-94.34
G1 X157.98 Y-94.48
G1 X157.84 Y-94.62
G1 X152.84 Y-94.62 F151.95
G1 X147.84 Y-94.62 F178.77
G1 X142.84 Y-94.62
G1 X141.05 Y-94.62
G1 X136.05 Y-94.62
G1 X131.05 Y-94.62 F151.95
G1 X126.05 Y-94.62 F125.14
G1 X124.26 Y-94.62
G1 X124.12 Y-94.48
G1 X123.98 Y-94.34
G1 X123.98 Y-89.34 F151.95
G1 X123.98 Y-84.34 F178.77
G1 X123.98 Y-79.34
G1 X123.98 Y-74.34
G1 X123.98 Y-69.34
G1 X123.98 Y-67.39
G1 X123.98 Y-62.39
G1 X123.98 Y-57.39
G1 X123.98 Y-52.39
G1 X123.98 Y-47.39 F151.95
G1 X123.98 Y-42.39 F125.14
G1 X123.98 Y-40.44
G1 X124.12 Y-40.30
G1 X124.26 Y-40.16
G1 X129.26 Y-40.16 F151.95
G1 X134.26 Y-40.16 F178.77
G1 X139.26 Y-40.16
G1 X141.05 Y-40.16
G1 X146.05 Y-40.16
G1 X151.05 Y-40.16 F151.95
G1 X156.05 Y-40.16 F125.14
G1 X157.84 Y-40.16
G1 X157.98 Y-40.30 F134.08
G1 X158.12 Y-40.44 F89.39
G1 X158.12 Y-40.44
G1 X158.12 Y-40.44
G4 S1.
M9
G4 S1.
M5
G4 S1.
G0 X199.45 Y-43.52
M3
M8
G4 S1.
G1 X199.37 Y-43.53
G1 X199.29 Y-43.55 F125.14
G1 X199.22 Y-43.58 F151.95
G1 X199.15 Y-43.63 F143.02
G1 X199.10 Y-43.68 F125.14
G1 X199.05 Y-43.75
G1 X199.02 Y-43.82
G1 X199.00 Y-43.90
G1 X198.99 Y-43.98
G1 X198.99 Y-47.92 F143.02
G1 X198.99 Y-51.87 F160.89
G1 X198.99 Y-55.82 F178.77
G1 X198.99 Y-57.23
G1 X198.99 Y-62.23
G1 X198.99 Y-67.23 F151.95
G1 X198.99 Y-72.23 F125.14
G1 X198.99 Y-74.02
G1 X198.85 Y-74.16
G1 X198.71 Y-74.30
G1 X193.71 Y-74.30 F151.95
G1 X188.71 Y-74.30 F178.77
G1 X183.71 Y-74.30
G1 X181.92 Y-74.30
G1 X176.92 Y-74.30
G1 X171.92 Y-74.30 F151.95
G1 X166.92 Y-74.30 F125.14
G1 X165.13 Y-74.30
G1 X164.99 Y-74.16
G1 X164.85 Y-74.02
G1 X164.85 Y-69.02 F151.95
G1 X164.85 Y-64.02 F178.77
G1 X164.85 Y-59.02
G1 X164.85 Y-57.23
G1 X164.85 Y-52.23
G1 X164.85 Y-47.23 F151.95
G1 X164.85 Y-42.23 F125.14
G1 X164.85 Y-40.44
G1 X164.99 Y-40.30
G1 X165.13 Y-40.16
G1 X170.13 Y-40.16 F151.95
G1 X175.13 Y-40.16 F178.77
G1 X180.13 Y-40.16
G1 X181.92 Y-40.16
G1 X186.92 Y-40.16
G1 X191.92 Y-40.16 F151.95
G1 X196.92 Y-40.16 F125.14
G1 X198.71 Y-40.16
G1 X198.85 Y-40.30 F134.08
G1 X198.99 Y-40.44 F89.39
G1 X198.99 Y-40.44
G1 X198.99 Y-40.44
G4 S1.
M9
G4 S1.
M5
G4 S1.
G0 X74.76 Y-63.84
M3
M8
G4 S1.
G1 X74.68 Y-63.85
G1 X74.60 Y-63.87 F125.14
G1 X74.53 Y-63.90 F151.95
G1 X74.46 Y-63.95 F143.02
G1 X74.41 Y-64.00 F125.14
G1 X74.36 Y-64.07
G1 X74.33 Y-64.14
G1 X74.31 Y-64.22
G1 X74.30 Y-64.30
G1 X74.30 Y-68.24 F143.02
G1 X74.30 Y-72.19 F160.89
G1 X74.30 Y-76.14 F178.77
G1 X74.30 Y-77.55
G1 X74.30 Y-82.55
G1 X74.30 Y-87.55 F151.95
G1 X74.30 Y-92.55 F125.14
G1 X74.30 Y-94.34
G1 X74.16 Y-94.48
G1 X74.02 Y-94.62
G1 X69.02 Y-94.62 F151.95
G1 X64.02 Y-94.62 F178.77
G1 X59.02 Y-94.62
G1 X57.23 Y-94.62
G1 X52.23 Y-94.62
G1 X47.23 Y-94.62 F151.95
G1 X42.23 Y-94.62 F125.14
G1 X40.44 Y-94.62
G1 X40.30 Y-94.48
G1 X40.16 Y-94.34
G1 X40.16 Y-89.34 F151.95
G1 X40.16 Y-84.34 F178.77
G1 X40.16 Y-79.34
G1 X40.16 Y-77.55
G1 X40.16 Y-72.55
G1 X40.16 Y-67.55 F151.95
G1 X40.16 Y-62.55 F125.14
G1 X40.16 Y-60.76
G1 X40.30 Y-60.62
G1 X40.44 Y-60.48
G1 X45.44 Y-60.48 F151.95
G1 X50.44 Y-60.48 F178.77
G1 X55.44 Y-60.48
G1 X57.23 Y-60.48
G1 X62.23 Y-60.48
G1 X67.23 Y-60.48 F151.95
G1 X72.23 Y-60.48 F125.14
G1 X74.02 Y-60.48
G1 X74.16 Y-60.62 F134.08
G1 X74.30 Y-60.76 F89.39
G1 X74.30 Y-60.76
G1 X74.30 Y-60.76
G4 S1.
M9
G4 S1.
M5
G4 S1.
M1413 00:17:44
M1404
